CTC1_L_00015016-03
1 10062U 26035FN  26075.70028935  .00000000  00000+0  00000-0 0  9998
2 10062  45.0000 180.0000 0000000   0.0000   0.0000 15.80155680    19
CTC1_L_00015016-04
1 10063U 26371JU  26075.70028935  .00000000  00000+0  00000-0 0  9992
2 10063  45.0000 180.0000 0000000   0.0000  90.0000 15.80155680    19
CTC1_L_00015017-01
1 10064U 23157BP  26075.70028935  .00000000  00000+0  00000-0 0  9992
2 10064  45.0000 192.0000 0000000   0.0000 192.0000 15.80155680    16
CTC1_L_00015017-02
1 10065U 22180YX  26075.70028935  .00000000  00000+0  00000-0 0  9998
2 10065  45.0000 192.0000 0000000   0.0000 282.0000 15.80155680    17
CTC1_L_00015017-03
1 10066U 26516DR  26075.70028935  .00000000  00000+0  00000-0 0  9996
2 10066  45.0000 192.0000 0000000   0.0000  12.0000 15.80155680    19
CTC1_L_00015017-04
1 10067U 24163EI  26075.70028935  .00000000  00000+0  00000-0 0  9993
2 10067  45.0000 192.0000 0000000   0.0000 102.0000 15.80155680    10
CTC1_L_00015018-01
1 10068U 24717ST  26075.70028935  .00000000  00000+0  00000-0 0  9999
2 10068  45.0000 204.0000 0000000   0.0000 204.0000 15.80155680    18
CTC1_L_00015018-02
1 10069U 26492OM  26075.70028935  .00000000  00000+0  00000-0 0  9992
2 10069  45.0000 204.0000 0000000   0.0000 294.0000 15.80155680    18
CTC1_L_00015018-03
1 10070U 25709EC  26075.70028935  .00000000  00000+0  00000-0 0  9994
2 10070  45.0000 204.0000 0000000   0.0000  24.0000 15.80155680    11
CTC1_L_00015018-04
1 10071U 26479WE  26075.70028935  .00000000  00000+0  00000-0 0  9990
2 10071  45.0000 204.0000 0000000   0.0000 114.0000 15.80155680    12
CTC1_L_00015019-01
1 10072U 23675AQ  26075.70028935  .00000000  00000+0  00000-0 0  9996
2 10072  45.0000 216.0000 0000000   0.0000 216.0000 15.80155680    19
CTC1_L_00015019-02
1 10073U 22190HB  26075.70028935  .00000000  00000+0  00000-0 0  9998
2 10073  45.0000 216.0000 0000000   0.0000 306.0000 15.80155680    10
CTC1_L_00015019-03
1 10074U 22763IW  26075.70028935  .00000000  00000+0  00000-0 0  9995
2 10074  45.0000 216.0000 0000000   0.0000  36.0000 15.80155680    11
CTC1_L_00015019-04
1 10075U 25695VT  26075.70028935  .00000000  00000+0  00000-0 0  9993
2 10075  45.0000 216.0000 0000000   0.0000 126.0000 15.80155680    12
CTC1_L_00015020-01
1 10076U 22369RO  26075.70028935  .00000000  00000+0  00000-0 0  9999
2 10076  45.0000 228.0000 0000000   0.0000 228.0000 15.80155680    19
CTC1_L_00015020-02
1 10077U 24136DE  26075.70028935  .00000000  00000+0  00000-0 0  9994
2 10077  45.0000 228.0000 0000000   0.0000 318.0000 15.80155680    10
CTC1_L_00015020-03
1 10078U 22838JV  26075.70028935  .00000000  00000+0  00000-0 0  9992
2 10078  45.0000 228.0000 0000000   0.0000  48.0000 15.80155680    11
CTC1_L_00015020-04
1 10079U 25411TU  26075.70028935  .00000000  00000+0  00000-0 0  9993
2 10079  45.0000 228.0000 0000000   0.0000 138.0000 15.80155680    12
CTC1_L_00015021-01
1 10080U 25714KU  26075.70028935  .00000000  00000+0  00000-0 0  9991
2 10080  45.0000 240.0000 0000000   0.0000 240.0000 15.80155680    12
CTC1_L_00015021-02
1 10081U 26185QN  26075.70028935  .00000000  00000+0  00000-0 0  9995
2 10081  45.0000 240.0000 0000000   0.0000 330.0000 15.80155680    13
CTC1_L_00015021-03
1 10082U 25852Q   26075.70028935  .00000000  00000+0  00000-0 0  9996
2 10082  45.0000 240.0000 0000000   0.0000  60.0000 15.80155680    14
CTC1_L_00015021-04
1 10083U 24805BC  26075.70028935  .00000000  00000+0  00000-0 0  9994
2 10083  45.0000 240.0000 0000000   0.0000 150.0000 15.80155680    15
CTC1_L_00015022-01
1 10084U 25060IL  26075.70028935  .00000000  00000+0  00000-0 0  9999
2 10084  45.0000 252.0000 0000000   0.0000 252.0000 15.80155680    12
CTC1_L_00015022-02
1 10085U 24049CP  26075.70028935  .00000000  00000+0  00000-0 0  9996
2 10085  45.0000 252.0000 0000000   0.0000 342.0000 15.80155680    13
CTC1_L_00015022-03
1 10086U 26920YM  26075.70028935  .00000000  00000+0  00000-0 0  9997
2 10086  45.0000 252.0000 0000000   0.0000  72.0000 15.80155680    14
CTC1_L_00015022-04
1 10087U 26228U   26075.70028935  .00000000  00000+0  00000-0 0  9999
2 10087  45.0000 252.0000 0000000   0.0000 162.0000 15.80155680    15
CTC1_L_00015023-01
1 10088U 25325QL  26075.70028935  .00000000  00000+0  00000-0 0  9997
2 10088  45.0000 264.0000 0000000   0.0000 264.0000 15.80155680    12
CTC1_L_00015023-02
1 10089U 24205YF  26075.70028935  .00000000  00000+0  00000-0 0  9994
2 10089  45.0000 264.0000 0000000   0.0000 354.0000 15.80155680    13
CTC1_L_00015023-03
1 10090U 26034WY  26075.70028935  .00000000  00000+0  00000-0 0  9998
2 10090  45.0000 264.0000 0000000   0.0000  84.0000 15.80155680    15
CTC1_L_00015023-04
1 10091U 25863WB  26075.70028935  .00000000  00000+0  00000-0 0  9998
2 10091  45.0000 264.0000 0000000   0.0000 174.0000 15.80155680    16
CTC1_L_00015024-01
1 10092U 23485XC  26075.70028935  .00000000  00000+0  00000-0 0  9997
2 10092  45.0000 276.0000 0000000   0.0000 276.0000 15.80155680    13
CTC1_L_00015024-02
1 10093U 24206PU  26075.70028935  .00000000  00000+0  00000-0 0  9990
2 10093  45.0000 276.0000 0000000   0.0000   6.0000 15.80155680    15
CTC1_L_00015024-03
1 10094U 22925FG  26075.70028935  .00000000  00000+0  00000-0 0  9997
2 10094  45.0000 276.0000 0000000   0.0000  96.0000 15.80155680    15
CTC1_L_00015024-04
1 10095U 26229CY  26075.70028935  .00000000  00000+0  00000-0 0  9999
2 10095  45.0000 276.0000 0000000   0.0000 186.0000 15.80155680    16
CTC1_L_00015025-01
1 10096U 25645R   26075.70028935  .00000000  00000+0  00000-0 0  9991
2 10096  45.0000 288.0000 0000000   0.0000 288.0000 15.80155680    13
CTC1_L_00015025-02
1 10097U 24828TS  26075.70028935  .00000000  00000+0  00000-0 0  9994
2 10097  45.0000 288.0000 0000000   0.0000  18.0000 15.80155680    15
CTC1_L_00015025-03
1 10098U 23727RE  26075.70028935  .00000000  00000+0  00000-0 0  9992
2 10098  45.0000 288.0000 0000000   0.0000 108.0000 15.80155680    16
CTC1_L_00015025-04
1 10099U 25517KR  26075.70028935  .00000000  00000+0  00000-0 0  9992
2 10099  45.0000 288.0000 0000000   0.0000 198.0000 15.80155680    16
CTC1_L_00015026-01
1 10100U 24250ST  26075.70028935  .00000000  00000+0  00000-0 0  9998
2 10100  45.0000 300.0000 0000000   0.0000 300.0000 15.80155680    19
CTC1_L_00015026-02
1 10101U 26190MO  26075.70028935  .00000000  00000+0  00000-0 0  9994
2 10101  45.0000 300.0000 0000000   0.0000  30.0000 15.80155680    10
CTC1_L_00015026-03
1 10102U 24514TM  26075.70028935  .00000000  00000+0  00000-0 0  9993
2 10102  45.0000 300.0000 0000000   0.0000 120.0000 15.80155680    11
CTC1_L_00015026-04
1 10103U 26255BX  26075.70028935  .00000000  00000+0  00000-0 0  9998
2 10103  45.0000 300.0000 0000000   0.0000 210.0000 15.80155680    12
CTC1_L_00015027-01
1 10104U 26885ZT  26075.70028935  .00000000  00000+0  00000-0 0  9998
2 10104  45.0000 312.0000 0000000   0.0000 312.0000 15.80155680    19
CTC1_L_00015027-02
1 10105U 23697XC  26075.70028935  .00000000  00000+0  00000-0 0  9997
2 10105  45.0000 312.0000 0000000   0.0000  42.0000 15.80155680    10
CTC1_L_00015027-03
1 10106U 22799MO  26075.70028935  .00000000  00000+0  00000-0 0  9990
2 10106  45.0000 312.0000 0000000   0.0000 132.0000 15.80155680    11
CTC1_L_00015027-04
1 10107U 25048TH  26075.70028935  .00000000  00000+0  00000-0 0  9991
2 10107  45.0000 312.0000 0000000   0.0000 222.0000 15.80155680    12
CTC1_L_00015028-01
1 10108U 25405RB  26075.70028935  .00000000  00000+0  00000-0 0  9999
2 10108  45.0000 324.0000 0000000   0.0000 324.0000 15.80155680    19
CTC1_L_00015028-02
1 10109U 23723TF  26075.70028935  .00000000  00000+0  00000-0 0  9991
2 10109  45.0000 324.0000 0000000   0.0000  54.0000 15.80155680    10
CTC1_L_00015028-03
1 10110U 24145VI  26075.70028935  .00000000  00000+0  00000-0 0  9992
2 10110  45.0000 324.0000 0000000   0.0000 144.0000 15.80155680    12
CTC1_L_00015028-04
1 10111U 25996MD  26075.70028935  .00000000  00000+0  00000-0 0  9998
2 10111  45.0000 324.0000 0000000   0.0000 234.0000 15.80155680    13
CTC1_L_00015029-01
1 10112U 24171HG  26075.70028935  .00000000  00000+0  00000-0 0  9993
2 10112  45.0000 336.0000 0000000   0.0000 336.0000 15.80155680    10
CTC1_L_00015029-02
1 10113U 24731OR  26075.70028935  .00000000  00000+0  00000-0 0  9996
2 10113  45.0000 336.0000 0000000   0.0000  66.0000 15.80155680    11
CTC1_L_00015029-03
1 10114U 26158LU  26075.70028935  .00000000  00000+0  00000-0 0  9992
2 10114  45.0000 336.0000 0000000   0.0000 156.0000 15.80155680    12
CTC1_L_00015029-04
1 10115U 23990MT  26075.70028935  .00000000  00000+0  00000-0 0  9994
2 10115  45.0000 336.0000 0000000   0.0000 246.0000 15.80155680    13
CTC1_L_00015030-01
1 10116U 26595KW  26075.70028935  .00000000  00000+0  00000-0 0  9999
2 10116  45.0000 348.0000 0000000   0.0000 348.0000 15.80155680    10
CTC1_L_00015030-02
1 10117U 26590LO  26075.70028935  .00000000  00000+0  00000-0 0  9995
2 10117  45.0000 348.0000 0000000   0.0000  78.0000 15.80155680    11
CTC1_L_00015030-03
1 10118U 26928CD  26075.70028935  .00000000  00000+0  00000-0 0  9991
2 10118  45.0000 348.0000 0000000   0.0000 168.0000 15.80155680    12
CTC1_L_00015030-04
1 10119U 26543OR  26075.70028935  .00000000  00000+0  00000-0 0  9995
2 10119  45.0000 348.0000 0000000   0.0000 258.0000 15.80155680    13
